#aV2016  7  6  0  0  0.00000000     288 DD+AD WGS84 FIT  NGA
## 1904 259200.00000000   300.00000000 57575 0.0000000000000
+   31     1  2  3  5  6  7  8  9 10 11 12 13 14 15 16 17 18
+         19 20 21 22 23 24 25 26 27 28 29 30 31 32  0  0  0
+          0  0  0  0  0  0  0  0  0  0  0  0  0  0  0  0  0
+          0  0  0  0  0  0  0  0  0  0  0  0  0  0  0  0  0
+          0  0  0  0  0  0  0  0  0  0  0  0  0  0  0  0  0
++         2  2  2  2  2  2  2  2  2  2  2  2  2  2  2  2  2
++         2  2  2  2  2  2  2  2  2  2  2  2  2  2  0  0  0
++         0  0  0  0  0  0  0  0  0  0  0  0  0  0  0  0  0
++         0  0  0  0  0  0  0  0  0  0  0  0  0  0  0  0  0
++         0  0  0  0  0  0  0  0  0  0  0  0  0  0  0  0  0
%c cc cc ccc ccc cccc cccc cccc cccc ccccc ccccc ccccc ccccc
%c cc cc ccc ccc cccc cccc cccc cccc ccccc ccccc ccccc ccccc
%f  0.0000000  0.000000000  0.00000000000  0.000000000000000
%f  0.0000000  0.000000000  0.00000000000  0.000000000000000
%i    0    0    0    0      0      0      0      0         0
%i    0    0    0    0      0      0      0      0         0
/*      NGA, ST. LOUIS,MO.                                  
/*   EPHEMERIS COMPUTED FROM 2 DAYS OF DATA                 
/*   EPOCHA v2.4 SMOOTHER                                   
/*   G1762  SATAF SATAPC                                    
*  2016  7  6 11 35  0.00000000
P  1 -19296.860391 -14116.930576 -11907.043185     25.992487                    
V  1  14880.254790   2134.196501 -26602.074278      0.012580                    
P  2  -1634.915016  15803.578085  21749.769052    579.269813                    
V  2 -25907.429855  -6096.966538   2149.033134     -0.038553                    
P  3 -13485.846328 -19677.885475  11685.430650    -70.754016                    
V  3  -1317.966112 -14971.531259 -26744.166374     -0.031672                    
P  5   2590.922049  25672.985784   5765.829797   -107.479660                    
V  5  -5167.948999  -6338.595185  30396.664565      0.028004                    
P  6 -17074.162128   8540.985568  18479.580842    214.770864                    
V  6 -22189.687451  -7648.960403 -16971.588315      0.052917                    
P  7 -25971.703313  -5711.470222  -3079.553025    443.840831                    
V  7  -3195.231847  -3361.309393  31290.127078     -0.025577                    
P  8  -2230.222036 -17312.187681 -19960.029515    -41.721946                    
V  8  18868.121496 -17119.800750  12749.324708     -0.014635                    
P  9 -18901.799370    143.493257  18652.759182    162.228277                    
V  9  15766.644224 -17793.010336  16085.342943      0.072286                    
P 10  12649.906039 -10035.792104 -21055.168465    -60.129545                    
V 10   7454.101510  25756.117003  -7858.758910     -0.075097                    
P 11 -14971.815260 -13077.513638 -18190.027026   -654.873492                    
V 11  21897.874957  -4471.532359 -15260.630054     -0.014199                    
P 12  10738.489087  22500.251663   9322.637888    384.609321                    
V 12    791.013710  12012.934015 -29270.074390      0.009235                    
P 13  -7118.100785  19752.572730 -16440.285006    -29.392583                    
V 13 -17226.854346  11383.378871  21210.905394     -0.024714                    
P 14  19476.337051 -17873.030115   1719.678273    -23.134459                    
V 14   3268.469986    983.137576 -31822.081544     -0.020156                    
P 15   5867.475008  16102.858839 -20338.242784   -318.247696                    
V 15 -18244.562200  18212.830300   9564.213810     -0.015805                    
P 16   -588.801508 -25619.340794   6059.183456     -6.417389                    
V 16   3493.872824   7389.654846  31410.340234      0.023137                    
P 17 -21478.654756  14432.854446  -5201.475683   -203.961216                    
V 17   3637.594846  -6516.968239 -31309.513668      0.000218                    
P 18  16671.550386   3675.220466 -19854.381851    533.703144                    
V 18   6281.935138  25787.858271   9535.796178      0.037310                    
P 19 -19108.697269  18371.511587   3374.095421   -525.130806                    
V 19  -4853.870257   1222.619570 -31432.655408      0.002177                    
P 20  13909.071628  21124.405512  -8194.704137    422.651061                    
V 20    -20.881655  10888.914675  28594.038410      0.022018                    
P 21  25958.241462   2961.798656  -4652.295794   -527.687791                    
V 21   5796.388091   4947.316839  30332.119728     -0.009363                    
P 22 -10233.130566 -24144.876859   4043.375714    303.380227                    
V 22   2489.550687  -5822.050011 -30390.314352     -0.090603                    
P 23 -13297.575106  -8709.219387  21516.059266   -181.045542                    
V 23  19033.061242 -18962.210727   3683.341474     -0.015576                    
P 24  16444.635908  15018.218821 -14675.872768    -19.706810                    
V 24 -18457.363536  -2425.590426 -23061.694879     -0.006579                    
P 25  15493.239424  11905.247925  17951.884626   -203.363514                    
V 25   4450.750068  22535.997761 -18469.208684     -0.070111                    
P 26   5452.970408 -21045.403221  15222.290302   -415.876020                    
V 26   6939.130682  18188.773969  22697.299619     -0.103342                    
P 27   8627.172337 -21242.789753 -13295.567969    111.552087                    
V 27  13471.266723 -10358.479578  25530.317458      0.043262                    
P 28 -12964.383417   7342.994009 -21356.987537    535.231362                    
V 28  -5385.189898 -28046.805420  -6234.504949      0.027376                    
P 29  16725.560560   3562.849733  20311.860740    655.860963                    
V 29 -18801.011303  17621.008496  12431.179765     -0.005118                    
P 30 -23665.322946    798.022432 -12145.181319    137.909543                    
V 30 -13681.847704  -7476.709347  26071.296507      0.024570                    
P 31  14314.115317  -9980.503336  20229.971413    260.290430                    
V 31  23914.555722   8377.933449 -12498.228561     -0.019754                    
P 32  20726.194941 -15932.002274  -4623.773525    -41.242903                    
V 32  -2204.293167   6152.852726 -31005.399253     -0.095668                    
EOF
